[{"OBJECT_NAME":"STARLINK-3700","OBJECT_ID":"2022-025A","EPOCH":"2026-03-09T03:57:26.961696","MEAN_MOTION":15.29350924,"ECCENTRICITY":0.00012959,"INCLINATION":53.1593,"RA_OF_ASC_NODE":15.8755,"ARG_OF_PERICENTER":94.7722,"MEAN_ANOMALY":265.3427,"EPHEMERIS_TYPE":0,"CLASSIFICATION_TYPE":"U","NORAD_CAT_ID":51956,"ELEMENT_SET_NO":999,"REV_AT_EPOCH":22109,"BSTAR":-1.4216439e-5,"MEAN_MOTION_DOT":-7.66e-6,"MEAN_MOTION_DDOT":0},{"OBJECT_NAME":"OBJECT D","OBJECT_ID":"2024-174D","EPOCH":"2026-03-10T00:15:10.483200","MEAN_MOTION":15.28039787,"ECCENTRICITY":0.00110644,"INCLINATION":97.4441,"RA_OF_ASC_NODE":80.4677,"ARG_OF_PERICENTER":212.9968,"MEAN_ANOMALY":147.0582,"EPHEMERIS_TYPE":0,"CLASSIFICATION_TYPE":"U","NORAD_CAT_ID":61241,"ELEMENT_SET_NO":999,"REV_AT_EPOCH":8076,"BSTAR":0.00036340099,"MEAN_MOTION_DOT":9.884e-5,"MEAN_MOTION_DDOT":0}]
